{
  "type": "FeatureCollection",
  "features": [
    {
      "type": "Feature",
      "properties": {
        "norad_id": 41330,
        "name": "COSMOS 2514 (751)",
        "group": "glo-ops",
        "lat": -19.631388239747626,
        "lon": 149.2197170509166,
        "alt_km": 19102.579771418743,
        "timestamp": "2025-12-03T20:47:58.484619+00:00",
        "meta_object_name": "COSMOS 2514 (751)",
        "meta_object_id": "2016-008A",
        "meta_epoch": "2025-12-02T04:41:58.161984",
        "meta_mean_motion": 2.13102491,
        "meta_eccentricity": 0.00124931,
        "meta_inclination": 65.1398,
        "meta_ra_of_asc_node": 319.7653,
        "meta_arg_of_pericenter": 219.8518,
        "meta_mean_anomaly": 140.0636,
        "meta_ephemeris_type": 0,
        "meta_classification_type": "U",
        "meta_norad_cat_id": 41330,
        "meta_element_set_no": 999,
        "meta_rev_at_epoch": 7642,
        "meta_bstar": 0,
        "meta_mean_motion_dot": -3.3e-07,
        "meta_mean_motion_ddot": 0,
        "tle_line1": "1 41330U 16008A   25336.19581206 -.00000033  00000+0  00000+0 0  9992",
        "tle_line2": "2 41330  65.1398 319.7653 0012493 219.8518 140.0636  2.13102491 76424"
      },
      "geometry": {
        "type": "Point",
        "coordinates": [
          149.2197170509166,
          -19.631388239747626
        ]
      }
    },
    {
      "type": "Feature",
      "properties": {
        "norad_id": 42939,
        "name": "COSMOS 2522 (752)",
        "group": "glo-ops",
        "lat": -30.38156281161515,
        "lon": -178.02965802553013,
        "alt_km": 19136.805252678376,
        "timestamp": "2025-12-03T20:47:58.484631+00:00",
        "meta_object_name": "COSMOS 2522 (752)",
        "meta_object_id": "2017-055A",
        "meta_epoch": "2025-12-02T23:20:47.282208",
        "meta_mean_motion": 2.1310185,
        "meta_eccentricity": 0.00065327,
        "meta_inclination": 64.0758,
        "meta_ra_of_asc_node": 198.5618,
        "meta_arg_of_pericenter": 226.0683,
        "meta_mean_anomaly": 133.9743,
        "meta_ephemeris_type": 0,
        "meta_classification_type": "U",
        "meta_norad_cat_id": 42939,
        "meta_element_set_no": 999,
        "meta_rev_at_epoch": 6379,
        "meta_bstar": 0,
        "meta_mean_motion_dot": 1.07e-06,
        "meta_mean_motion_ddot": 0,
        "tle_line1": "1 42939U 17055A   25336.97276947  .00000107  00000+0  00000+0 0  9991",
        "tle_line2": "2 42939  64.0758 198.5618 0006532 226.0683 133.9743  2.13101850 63796"
      },
      "geometry": {
        "type": "Point",
        "coordinates": [
          -178.02965802553013,
          -30.38156281161515
        ]
      }
    },
    {
      "type": "Feature",
      "properties": {
        "norad_id": 43508,
        "name": "COSMOS 2527 (756)",
        "group": "glo-ops",
        "lat": -3.7165934602434803,
        "lon": 78.73122343039475,
        "alt_km": 19145.669022645638,
        "timestamp": "2025-12-03T20:47:58.484642+00:00",
        "meta_object_name": "COSMOS 2527 (756)",
        "meta_object_id": "2018-053A",
        "meta_epoch": "2025-12-03T09:39:54.898272",
        "meta_mean_motion": 2.13102029,
        "meta_eccentricity": 0.0008648,
        "meta_inclination": 65.4675,
        "meta_ra_of_asc_node": 80.4438,
        "meta_arg_of_pericenter": 224.1252,
        "meta_mean_anomaly": 135.8021,
        "meta_ephemeris_type": 0,
        "meta_classification_type": "U",
        "meta_norad_cat_id": 43508,
        "meta_element_set_no": 999,
        "meta_rev_at_epoch": 5810,
        "meta_bstar": 0,
        "meta_mean_motion_dot": -2.2e-07,
        "meta_mean_motion_ddot": 0,
        "tle_line1": "1 43508U 18053A   25337.40271873 -.00000022  00000+0  00000+0 0  9992",
        "tle_line2": "2 43508  65.4675  80.4438 0008648 224.1252 135.8021  2.13102029 58100"
      },
      "geometry": {
        "type": "Point",
        "coordinates": [
          78.73122343039475,
          -3.7165934602434803
        ]
      }
    },
    {
      "type": "Feature",
      "properties": {
        "norad_id": 43687,
        "name": "COSMOS 2529 (757)",
        "group": "glo-ops",
        "lat": -62.14892035786508,
        "lon": 133.48171598381197,
        "alt_km": 19119.744565513556,
        "timestamp": "2025-12-03T20:47:58.484654+00:00",
        "meta_object_name": "COSMOS 2529 (757)",
        "meta_object_id": "2018-086A",
        "meta_epoch": "2025-12-03T00:44:36.468960",
        "meta_mean_motion": 2.13101888,
        "meta_eccentricity": 0.0007293,
        "meta_inclination": 64.2917,
        "meta_ra_of_asc_node": 199.2166,
        "meta_arg_of_pericenter": 254.4618,
        "meta_mean_anomaly": 105.5545,
        "meta_ephemeris_type": 0,
        "meta_classification_type": "U",
        "meta_norad_cat_id": 43687,
        "meta_element_set_no": 999,
        "meta_rev_at_epoch": 5510,
        "meta_bstar": 0,
        "meta_mean_motion_dot": 1.06e-06,
        "meta_mean_motion_ddot": 0,
        "tle_line1": "1 43687U 18086A   25337.03097765  .00000106  00000+0  00000+0 0  9993",
        "tle_line2": "2 43687  64.2917 199.2166 0007293 254.4618 105.5545  2.13101888 55102"
      },
      "geometry": {
        "type": "Point",
        "coordinates": [
          133.48171598381197,
          -62.14892035786508
        ]
      }
    },
    {
      "type": "Feature",
      "properties": {
        "norad_id": 44299,
        "name": "COSMOS 2534 (758)",
        "group": "glo-ops",
        "lat": 48.00367547665386,
        "lon": -128.5846190816255,
        "alt_km": 19139.973732509785,
        "timestamp": "2025-12-03T20:47:58.484666+00:00",
        "meta_object_name": "COSMOS 2534 (758)",
        "meta_object_id": "2019-030A",
        "meta_epoch": "2025-12-01T03:07:57.438624",
        "meta_mean_motion": 2.1310195,
        "meta_eccentricity": 0.00091167,
        "meta_inclination": 64.3652,
        "meta_ra_of_asc_node": 199.2842,
        "meta_arg_of_pericenter": 283.4428,
        "meta_mean_anomaly": 193.0266,
        "meta_ephemeris_type": 0,
        "meta_classification_type": "U",
        "meta_norad_cat_id": 44299,
        "meta_element_set_no": 999,
        "meta_rev_at_epoch": 5070,
        "meta_bstar": 0,
        "meta_mean_motion_dot": 9.9e-07,
        "meta_mean_motion_ddot": 0,
        "tle_line1": "1 44299U 19030A   25335.13052591  .00000099  00000+0  00000+0 0  9991",
        "tle_line2": "2 44299  64.3652 199.2842 0009116 283.4428 193.0266  2.13101950 50700"
      },
      "geometry": {
        "type": "Point",
        "coordinates": [
          -128.5846190816255,
          48.00367547665386
        ]
      }
    },
    {
      "type": "Feature",
      "properties": {
        "norad_id": 44850,
        "name": "COSMOS 2544 (759)",
        "group": "glo-ops",
        "lat": 34.402545248803136,
        "lon": 98.46119659383325,
        "alt_km": 19156.041875943694,
        "timestamp": "2025-12-03T20:47:58.484677+00:00",
        "meta_object_name": "COSMOS 2544 (759)",
        "meta_object_id": "2019-088A",
        "meta_epoch": "2025-12-02T21:04:19.473024",
        "meta_mean_motion": 2.13101821,
        "meta_eccentricity": 0.00136854,
        "meta_inclination": 65.4546,
        "meta_ra_of_asc_node": 80.2883,
        "meta_arg_of_pericenter": 248.8898,
        "meta_mean_anomaly": 110.9602,
        "meta_ephemeris_type": 0,
        "meta_classification_type": "U",
        "meta_norad_cat_id": 44850,
        "meta_element_set_no": 999,
        "meta_rev_at_epoch": 4653,
        "meta_bstar": 0,
        "meta_mean_motion_dot": -2.1e-07,
        "meta_mean_motion_ddot": 0,
        "tle_line1": "1 44850U 19088A   25336.87800316 -.00000021  00000+0  00000+0 0  9991",
        "tle_line2": "2 44850  65.4546  80.2883 0013685 248.8898 110.9602  2.13101821 46538"
      },
      "geometry": {
        "type": "Point",
        "coordinates": [
          98.46119659383325,
          34.402545248803136
        ]
      }
    },
    {
      "type": "Feature",
      "properties": {
        "norad_id": 45358,
        "name": "COSMOS 2545 (760)",
        "group": "glo-ops",
        "lat": -56.858062463629444,
        "lon": -173.68386509755362,
        "alt_km": 19105.639085926723,
        "timestamp": "2025-12-03T20:47:58.484689+00:00",
        "meta_object_name": "COSMOS 2545 (760)",
        "meta_object_id": "2020-018A",
        "meta_epoch": "2025-12-01T04:43:25.038912",
        "meta_mean_motion": 2.13102323,
        "meta_eccentricity": 0.00119194,
        "meta_inclination": 64.4762,
        "meta_ra_of_asc_node": 319.3749,
        "meta_arg_of_pericenter": 248.338,
        "meta_mean_anomaly": 111.5456,
        "meta_ephemeris_type": 0,
        "meta_classification_type": "U",
        "meta_norad_cat_id": 45358,
        "meta_element_set_no": 999,
        "meta_rev_at_epoch": 4444,
        "meta_bstar": 0,
        "meta_mean_motion_dot": -2.8e-07,
        "meta_mean_motion_ddot": 0,
        "tle_line1": "1 45358U 20018A   25335.19681758 -.00000028  00000+0  00000+0 0  9998",
        "tle_line2": "2 45358  64.4762 319.3749 0011919 248.3380 111.5456  2.13102323 44447"
      },
      "geometry": {
        "type": "Point",
        "coordinates": [
          -173.68386509755362,
          -56.858062463629444
        ]
      }
    }
  ]
}